{
  "norad_id": 60040,
  "name": "STARLINK-11122 [DTC]",
  "history": [
    {
      "epoch": "2026-03-28T15:14:19.978944",
      "apogee_km": 360.4188495858898,
      "perigee_km": 358.9473096804968,
      "latitude_deg": -42.517715171456096,
      "longitude_deg": -115.04446783987805,
      "semi_major_axis_km": 6737.820079633193,
      "eccentricity": 0.0001092,
      "inclination_deg": 53.1595,
      "raan_deg": 173.0927,
      "arg_perigee_deg": 78.5207,
      "mean_anomaly_deg": 281.5934,
      "mean_motion_rev_day": 15.69725261
    }
  ]
}