{"fetched_at":"2026-03-29T16:36:15Z","count":15609,"tles":[{"name":"STARLINK-11122 [DTC]","line1":"1 60040U 24112C   26087.63495346  .00001451  00000+0  16821-4 0  9995","line2":"2 60040  53.1595 173.0927 0001092  78.5207 281.5934 15.69725261103954","category":"Starlink"}]}